SES-15                  
1 42709U 17026A   25333.69511484  .00000081  00000+0  00000+0 0  9999
2 42709   0.0208 335.0974 0000234 263.1432 311.6705  1.00267638  5433
QZS-2 (MICHIBIKI-2)     
1 42738U 17028A   25330.63725340 -.00000156  00000+0  00000+0 0  9996
2 42738  39.7408 246.1183 0760191 269.2964 280.9315  1.00287369  5597
QZS-3 (MICHIBIKI-3)     
1 42917U 17048A   25333.81717603 -.00000327  00000+0  00000+0 0  9993
2 42917   0.0875 123.7833 0001162 120.5103 245.8270  1.00266385 30264
QZS-4 (MICHIBIKI-4)     
1 42965U 17062A   25333.54997992 -.00000301  00000+0  00000+0 0  9995
2 42965  40.2336 346.0421 0752251 271.1720 146.8651  1.00256332 29800
IRNSS-1I                
1 43286U 18035A   25332.87549949  .00000104  00000+0  00000+0 0  9993
2 43286  29.1159  77.3161 0021447 181.3332 179.6588  1.00276743 28077
EUTELSAT 5 WEST B       
1 44624U 19067A   25333.71972832 -.00000021  00000+0  00000+0 0  9990
2 44624   0.0633 346.1143 0003404 262.1528  74.7065  1.00271204 22430
GALAXY 30 (G-30)        
1 46114U 20056C   25333.69589485  .00000058  00000+0  00000+0 0  9990
2 46114   0.0185 313.7126 0002240 292.2778 308.3699  1.00272069 19296
QZS-1R (MICHIBIKI-1R)   
1 49336U 21096A   25333.64877256 -.00000205  00000+0  00000+0 0  9990
2 49336  37.0489  82.5561 0753161 271.0408  84.1935  1.00261542 15018
