{
  "type": "FeatureCollection",
  "features": [
    {
      "type": "Feature",
      "properties": {
        "OBJECT_NAME": "SES-15 (WAAS/PRN 133)",
        "OBJECT_ID": "2017-026A",
        "EPOCH": "2025-11-29T16:40:57.922176",
        "MEAN_MOTION": 1.00267638,
        "ECCENTRICITY": 2.34e-05,
        "INCLINATION": 0.0208,
        "RA_OF_ASC_NODE": 335.0974,
        "ARG_OF_PERICENTER": 263.1432,
        "MEAN_ANOMALY": 311.6705,
        "EPHEMERIS_TYPE": 0,
        "CLASSIFICATION_TYPE": "U",
        "NORAD_CAT_ID": 42709,
        "ELEMENT_SET_NO": 999,
        "REV_AT_EPOCH": 543,
        "BSTAR": 0,
        "MEAN_MOTION_DOT": 8.1e-07,
        "MEAN_MOTION_DDOT": 0,
        "norad_id": 42709,
        "name": "SES-15 (WAAS/PRN 133)",
        "group": "gnss",
        "longitude_deg": NaN,
        "latitude_deg": NaN,
        "alt_km": NaN,
        "orbit_class": "HEO",
        "timestamp": "2025-11-30T07:29:52.811776+00:00"
      },
      "geometry": {
        "type": "Point",
        "coordinates": [
          NaN,
          NaN
        ]
      }
    },
    {
      "type": "Feature",
      "properties": {
        "OBJECT_NAME": "QZS-2 (QZSS/PRN 194)",
        "OBJECT_ID": "2017-028A",
        "EPOCH": "2025-11-26T15:17:38.693760",
        "MEAN_MOTION": 1.00287369,
        "ECCENTRICITY": 0.07601911,
        "INCLINATION": 39.7408,
        "RA_OF_ASC_NODE": 246.1183,
        "ARG_OF_PERICENTER": 269.2964,
        "MEAN_ANOMALY": 280.9315,
        "EPHEMERIS_TYPE": 0,
        "CLASSIFICATION_TYPE": "U",
        "NORAD_CAT_ID": 42738,
        "ELEMENT_SET_NO": 999,
        "REV_AT_EPOCH": 559,
        "BSTAR": 0,
        "MEAN_MOTION_DOT": -1.56e-06,
        "MEAN_MOTION_DDOT": 0,
        "norad_id": 42738,
        "name": "QZS-2 (QZSS/PRN 194)",
        "group": "gnss",
        "longitude_deg": NaN,
        "latitude_deg": NaN,
        "alt_km": NaN,
        "orbit_class": "HEO",
        "timestamp": "2025-11-30T07:29:52.811792+00:00"
      },
      "geometry": {
        "type": "Point",
        "coordinates": [
          NaN,
          NaN
        ]
      }
    },
    {
      "type": "Feature",
      "properties": {
        "OBJECT_NAME": "QZS-3 (QZSS/PRN 199)",
        "OBJECT_ID": "2017-048A",
        "EPOCH": "2025-11-29T19:36:44.008992",
        "MEAN_MOTION": 1.00266385,
        "ECCENTRICITY": 0.0001162,
        "INCLINATION": 0.0875,
        "RA_OF_ASC_NODE": 123.7833,
        "ARG_OF_PERICENTER": 120.5103,
        "MEAN_ANOMALY": 245.827,
        "EPHEMERIS_TYPE": 0,
        "CLASSIFICATION_TYPE": "U",
        "NORAD_CAT_ID": 42917,
        "ELEMENT_SET_NO": 999,
        "REV_AT_EPOCH": 3026,
        "BSTAR": 0,
        "MEAN_MOTION_DOT": -3.27e-06,
        "MEAN_MOTION_DDOT": 0,
        "norad_id": 42917,
        "name": "QZS-3 (QZSS/PRN 199)",
        "group": "gnss",
        "longitude_deg": NaN,
        "latitude_deg": NaN,
        "alt_km": NaN,
        "orbit_class": "HEO",
        "timestamp": "2025-11-30T07:29:52.812041+00:00"
      },
      "geometry": {
        "type": "Point",
        "coordinates": [
          NaN,
          NaN
        ]
      }
    },
    {
      "type": "Feature",
      "properties": {
        "OBJECT_NAME": "QZS-4 (QZSS/PRN 195)",
        "OBJECT_ID": "2017-062A",
        "EPOCH": "2025-11-29T13:11:58.265088",
        "MEAN_MOTION": 1.00256332,
        "ECCENTRICITY": 0.0752251,
        "INCLINATION": 40.2336,
        "RA_OF_ASC_NODE": 346.0421,
        "ARG_OF_PERICENTER": 271.172,
        "MEAN_ANOMALY": 146.8651,
        "EPHEMERIS_TYPE": 0,
        "CLASSIFICATION_TYPE": "U",
        "NORAD_CAT_ID": 42965,
        "ELEMENT_SET_NO": 999,
        "REV_AT_EPOCH": 2980,
        "BSTAR": 0,
        "MEAN_MOTION_DOT": -3.01e-06,
        "MEAN_MOTION_DDOT": 0,
        "norad_id": 42965,
        "name": "QZS-4 (QZSS/PRN 195)",
        "group": "gnss",
        "longitude_deg": NaN,
        "latitude_deg": NaN,
        "alt_km": NaN,
        "orbit_class": "HEO",
        "timestamp": "2025-11-30T07:29:52.812181+00:00"
      },
      "geometry": {
        "type": "Point",
        "coordinates": [
          NaN,
          NaN
        ]
      }
    },
    {
      "type": "Feature",
      "properties": {
        "OBJECT_NAME": "IRNSS-1I",
        "OBJECT_ID": "2018-035A",
        "EPOCH": "2025-11-28T21:00:43.155936",
        "MEAN_MOTION": 1.00276743,
        "ECCENTRICITY": 0.00214474,
        "INCLINATION": 29.1159,
        "RA_OF_ASC_NODE": 77.3161,
        "ARG_OF_PERICENTER": 181.3332,
        "MEAN_ANOMALY": 179.6588,
        "EPHEMERIS_TYPE": 0,
        "CLASSIFICATION_TYPE": "U",
        "NORAD_CAT_ID": 43286,
        "ELEMENT_SET_NO": 999,
        "REV_AT_EPOCH": 2807,
        "BSTAR": 0,
        "MEAN_MOTION_DOT": 1.04e-06,
        "MEAN_MOTION_DDOT": 0,
        "norad_id": 43286,
        "name": "IRNSS-1I",
        "group": "gnss",
        "longitude_deg": NaN,
        "latitude_deg": NaN,
        "alt_km": NaN,
        "orbit_class": "HEO",
        "timestamp": "2025-11-30T07:29:52.812869+00:00"
      },
      "geometry": {
        "type": "Point",
        "coordinates": [
          NaN,
          NaN
        ]
      }
    },
    {
      "type": "Feature",
      "properties": {
        "OBJECT_NAME": "EUTELSAT 5 WEST B (EGNOS/PRN 121)",
        "OBJECT_ID": "2019-067A",
        "EPOCH": "2025-11-29T17:16:24.526848",
        "MEAN_MOTION": 1.00271204,
        "ECCENTRICITY": 0.0003404,
        "INCLINATION": 0.0633,
        "RA_OF_ASC_NODE": 346.1143,
        "ARG_OF_PERICENTER": 262.1528,
        "MEAN_ANOMALY": 74.7065,
        "EPHEMERIS_TYPE": 0,
        "CLASSIFICATION_TYPE": "U",
        "NORAD_CAT_ID": 44624,
        "ELEMENT_SET_NO": 999,
        "REV_AT_EPOCH": 2243,
        "BSTAR": 0,
        "MEAN_MOTION_DOT": -2.1e-07,
        "MEAN_MOTION_DDOT": 0,
        "norad_id": 44624,
        "name": "EUTELSAT 5 WEST B (EGNOS/PRN 121)",
        "group": "gnss",
        "longitude_deg": NaN,
        "latitude_deg": NaN,
        "alt_km": NaN,
        "orbit_class": "HEO",
        "timestamp": "2025-11-30T07:29:52.814444+00:00"
      },
      "geometry": {
        "type": "Point",
        "coordinates": [
          NaN,
          NaN
        ]
      }
    },
    {
      "type": "Feature",
      "properties": {
        "OBJECT_NAME": "GALAXY 30 (WAAS/PRN 135)",
        "OBJECT_ID": "2020-056C",
        "EPOCH": "2025-11-29T16:42:05.315040",
        "MEAN_MOTION": 1.00272069,
        "ECCENTRICITY": 0.000224,
        "INCLINATION": 0.0185,
        "RA_OF_ASC_NODE": 313.7126,
        "ARG_OF_PERICENTER": 292.2778,
        "MEAN_ANOMALY": 308.3699,
        "EPHEMERIS_TYPE": 0,
        "CLASSIFICATION_TYPE": "U",
        "NORAD_CAT_ID": 46114,
        "ELEMENT_SET_NO": 999,
        "REV_AT_EPOCH": 1929,
        "BSTAR": 0,
        "MEAN_MOTION_DOT": 5.8e-07,
        "MEAN_MOTION_DDOT": 0,
        "norad_id": 46114,
        "name": "GALAXY 30 (WAAS/PRN 135)",
        "group": "gnss",
        "longitude_deg": NaN,
        "latitude_deg": NaN,
        "alt_km": NaN,
        "orbit_class": "HEO",
        "timestamp": "2025-11-30T07:29:52.817064+00:00"
      },
      "geometry": {
        "type": "Point",
        "coordinates": [
          NaN,
          NaN
        ]
      }
    },
    {
      "type": "Feature",
      "properties": {
        "OBJECT_NAME": "QZS-1R (QZSS/PRN 196)",
        "OBJECT_ID": "2021-096A",
        "EPOCH": "2025-11-29T15:34:13.949184",
        "MEAN_MOTION": 1.00261542,
        "ECCENTRICITY": 0.0753161,
        "INCLINATION": 37.0489,
        "RA_OF_ASC_NODE": 82.5561,
        "ARG_OF_PERICENTER": 271.0408,
        "MEAN_ANOMALY": 84.1935,
        "EPHEMERIS_TYPE": 0,
        "CLASSIFICATION_TYPE": "U",
        "NORAD_CAT_ID": 49336,
        "ELEMENT_SET_NO": 999,
        "REV_AT_EPOCH": 1501,
        "BSTAR": 0,
        "MEAN_MOTION_DOT": -2.05e-06,
        "MEAN_MOTION_DDOT": 0,
        "norad_id": 49336,
        "name": "QZS-1R (QZSS/PRN 196)",
        "group": "gnss",
        "longitude_deg": NaN,
        "latitude_deg": NaN,
        "alt_km": NaN,
        "orbit_class": "HEO",
        "timestamp": "2025-11-30T07:29:52.824473+00:00"
      },
      "geometry": {
        "type": "Point",
        "coordinates": [
          NaN,
          NaN
        ]
      }
    }
  ]
}